[{"OBJECT_NAME":"LOGSATS","OBJECT_ID":"2025-009CJ","EPOCH":"2026-03-09T17:25:39.487008","MEAN_MOTION":15.72310294,"ECCENTRICITY":0.00053927,"INCLINATION":97.3907,"RA_OF_ASC_NODE":158.8419,"ARG_OF_PERICENTER":263.6729,"MEAN_ANOMALY":96.392,"EPHEMERIS_TYPE":0,"CLASSIFICATION_TYPE":"U","NORAD_CAT_ID":62689,"ELEMENT_SET_NO":999,"REV_AT_EPOCH":6421,"BSTAR":0.0019540727,"MEAN_MOTION_DOT":0.00266017,"MEAN_MOTION_DDOT":0},{"OBJECT_NAME":"STARLINK-11436 [DTC]","OBJECT_ID":"2025-024J","EPOCH":"2026-03-09T11:23:17.840256","MEAN_MOTION":15.70828407,"ECCENTRICITY":8.957e-5,"INCLINATION":42.9994,"RA_OF_ASC_NODE":182.6726,"ARG_OF_PERICENTER":286.6969,"MEAN_ANOMALY":73.38,"EPHEMERIS_TYPE":0,"CLASSIFICATION_TYPE":"U","NORAD_CAT_ID":62887,"ELEMENT_SET_NO":999,"REV_AT_EPOCH":6343,"BSTAR":0.0019392662,"MEAN_MOTION_DOT":0.00256084,"MEAN_MOTION_DDOT":0}]
