LOGSATS                 
1 62689U 25009CJ  26068.72615147  .00266017  00000+0  19541-2 0  9995
2 62689  97.3907 158.8419 0005393 263.6729  96.3920 15.72310294 64215
STARLINK-11436 [DTC]    
1 62887U 25024J   26068.47451204  .00256084  00000+0  19393-2 0  9994
2 62887  42.9994 182.6726 0000895 286.6969  73.3800 15.70828407 63439
